ONEWEB-0116             
1 48046U 21025E   24132.32412601  .00000489  00000+0  13029-2 0  9990
2 48046  87.8899 112.8488 0001866  91.1873 268.9470 13.13468901152982
ONEWEB-0150             
1 48047U 21025F   24131.91784895  .00000021  00000+0  21729-4 0  9992
2 48047  87.8893 112.9510 0002034  83.2264 276.9097 13.13471175152822
ONEWEB-0107             
1 48048U 21025G   24132.45267883  .00000143  00000+0  35792-3 0  9995
2 48048  87.8894 112.8422 0002163  79.2675 280.8698 13.13470339152876
ONEWEB-0101             
1 48049U 21025H   24132.49234652  .00000103  00000+0  24647-3 0  9991
2 48049  87.8899 112.8485 0002108  88.3737 271.7633 13.13468547152854
ONEWEB-0113             
1 48050U 21025J   24132.85102283  .00000334  00000+0  87875-3 0  9995
2 48050  87.8897 112.7588 0001959  90.8859 269.2495 13.13469467152987
ONEWEB-0112             
1 48051U 21025K   24132.83832973  .00000104  00000+0  25083-3 0  9998
2 48051  87.8893 112.7631 0002000  84.7200 275.4157 13.13471223153004
ONEWEB-0156             
1 48052U 21025L   24132.46695255  .00000458  00000+0  12186-2 0  9999
2 48052  87.8897 112.8330 0001995  85.4305 274.7052 13.13473155152935
ONEWEB-0161             
1 48053U 21025M   24131.90673784 -.00000258  00000+0 -74203-3 0  9990
2 48053  87.8900 112.9510 0002219  85.6298 274.5085 13.13470441152798
